#aV2022 12 20  0  0  0.00000000     288 DD+AD WGS84 FIT  NGA
## 2241 172800.00000000   300.00000000 59933 0.0000000000000
+   31     1  2  3  4  5  6  7  8  9 10 11 12 13 14 15 16 17
+         18 19 20 21 22 23 24 25 26 27 29 30 31 32  0  0  0
+          0  0  0  0  0  0  0  0  0  0  0  0  0  0  0  0  0
+          0  0  0  0  0  0  0  0  0  0  0  0  0  0  0  0  0
+          0  0  0  0  0  0  0  0  0  0  0  0  0  0  0  0  0
++         2  2  2  2  2  2  2  2  2  2  2  2  2  2  2  2  2
++         2  2  2  2  2  2  2  2  2  2  2  2  2  2  0  0  0
++         0  0  0  0  0  0  0  0  0  0  0  0  0  0  0  0  0
++         0  0  0  0  0  0  0  0  0  0  0  0  0  0  0  0  0
++         0  0  0  0  0  0  0  0  0  0  0  0  0  0  0  0  0
%c cc cc ccc ccc cccc cccc cccc cccc ccccc ccccc ccccc ccccc
%c cc cc ccc ccc cccc cccc cccc cccc ccccc ccccc ccccc ccccc
%f  0.0000000  0.000000000  0.00000000000  0.000000000000000
%f  0.0000000  0.000000000  0.00000000000  0.000000000000000
%i    0    0    0    0      0      0      0      0         0
%i    0    0    0    0      0      0      0      0         0
/*      NGA, ST. LOUIS,MO.                                  
/*   EPHEMERIS COMPUTED FROM 2 DAYS OF DATA                 
/*   EPOCHA v8 SMOOTHER                                     
/*   G2139 IERS2010 SATIGS SATAPC                           
*  2022 12 20  9 15  0.00000000
P  1  -4766.861540  17009.784027 -20029.562189    235.265963                    
V  1 -22676.658971  10063.848558  14497.691268     -0.051249                    
P  2    774.928468 -17331.712984  20802.714104   -632.050189                    
V  2  21602.832223 -12455.273864 -11331.078155      0.020433                    
P  3   4932.988663  18305.459915 -18769.629851   -375.154274                    
V  3 -20320.121295 -11851.367858 -16904.733883      0.005006                    
P  4   -361.736749  26359.448335   2727.006611    -65.079871                    
V  4  -3146.866118   3212.208693 -31596.770635      0.072418                    
P  5   9660.737745 -11726.365973  21620.590787   -108.776650                    
V  5  23904.090685  14280.673387  -2798.257331     -0.014629                    
P  6  24071.234589  -4434.276303 -10344.857416    543.711507                    
V  6 -11031.941413   7396.004408 -28567.221486      0.073805                    
P  7  11276.560571  11571.975426  21565.432076    271.736534                    
V  7 -23399.574110  12157.431825   5340.720090     -0.055747                    
P  8  -6714.873290  23958.554252   8683.651896    -99.538886                    
V  8  -2593.408896 -11277.832288  29328.129093     -0.018221                    
P  9   8363.932271  21674.785428  12750.118480   -250.485584                    
V  9  -2981.205459  16265.940131 -25580.050473      0.061870                    
P 10 -23745.734475 -10851.094049  -5565.138502    -16.889099                    
V 10  -4968.845717  -5586.937083  30864.076228     -0.016127                    
P 11  23573.985485 -12029.957131   2001.734658    -60.676409                    
V 11   3422.771552   1460.091948 -31723.559246     -0.076520                    
P 12  -2479.064248 -18468.756638 -19240.289403   -318.120349                    
V 12  19699.607321  13403.250348 -15524.199498     -0.045261                    
P 13  12970.558208 -18613.934469  13477.229121    445.113430                    
V 13  -1111.132703  17568.865669  25189.926836      0.065699                    
P 14  23013.342889  12874.620097  -3668.000143    -64.999560                    
V 14   2103.405544   5121.589626  30997.684587      0.065847                    
P 15   3739.026413 -24817.671344   7800.144092     -2.535456                    
V 15   4684.094567  10270.652241  29063.274585      0.032408                    
P 16 -14450.536337   7026.426198  20943.564245   -525.825054                    
V 16 -21061.901902 -17142.226689  -8208.277078      0.006734                    
P 17  12824.234401  10032.208296 -20525.539996    687.319292                    
V 17  -3939.918234  26777.841863  10488.078759      0.028414                    
P 18 -13234.346388  -9479.910316  21018.197346    -66.161762                    
V 18  23651.963176 -12216.559543   9244.868495     -0.147230                    
P 19  15322.086854  -2490.937147 -21748.327286    252.961947                    
V 19  -3741.495792  26810.424032  -6025.007847      0.050884                    
P 20  19972.859227  -4501.922312  16823.456635    462.387407                    
V 20  18784.450764  10571.575402 -19719.677098     -0.024783                    
P 21 -12473.269133  18535.631375 -13134.846768    153.391139                    
V 21 -16835.212879   6979.790511  25487.031694     -0.009476                    
P 22 -15203.876588   6248.508498 -20401.153619    388.502682                    
V 22   2574.960033 -26810.278484 -10096.699844      0.078585                    
P 23 -20246.747812 -16498.299249   5228.917503      0.432268                    
V 23   6829.459984   1488.025818  30989.374289      0.007403                    
P 24   7553.567930 -19281.815055 -16737.579284      7.385716                    
V 24  19017.652371  -8922.617100  19682.134375     -0.172673                    
P 25 -13012.936139 -19362.519610 -13256.132511    403.732778                    
V 25  14848.343648   6924.404689 -24991.429643      0.035050                    
P 26 -22583.232938   -771.415577  14118.645698    238.777799                    
V 26 -14484.034050 -11033.285407 -23261.784488      0.008024                    
P 27 -12527.371304  15480.352194  17142.542842    148.404423                    
V 27   -771.710922 -22408.395549  19816.874812     -0.099076                    
P 29  -4635.940143 -23536.568243  11270.932040   -575.232485                    
V 29   3818.413292 -14007.463974 -27649.086521     -0.024981                    
P 30  21156.698545   2748.401364  16067.625721   -535.070159                    
V 30 -17130.920882  10952.243543  20543.958912      0.006989                    
P 31 -24850.720271   5034.021345  -8819.919011   -203.826670                    
V 31   8746.322745  -6842.641042 -28634.097367     -0.011615                    
P 32 -14572.769842  -6416.003879 -21133.256672   -335.995529                    
V 32   1721.242028 -27120.373137   6798.210912     -0.130706                    
EOF
